[
  {
    "OBJECT_NAME": "STARLINK-4347",
    "OBJECT_ID": "22077AK",
    "EPOCH": "2025-11-11T05:19:54.636096",
    "MEAN_MOTION": 15.01257411,
    "ECCENTRICITY": 0.0001654,
    "INCLINATION": 97.602,
    "RA_OF_ASC_NODE": 134.2329,
    "ARG_OF_PERICENTER": 91.2532,
    "MEAN_ANOMALY": 268.8882,
    "EPHEMERIS_TYPE": 0,
    "CLASSIFICATION_TYPE": "U",
    "NORAD_CAT_ID": 53076,
    "ELEMENT_SET_NO": 999,
    "REV_AT_EPOCH": 18314,
    "BSTAR": 0.0,
    "MEAN_MOTION_DOT": -7.14e-06,
    "MEAN_MOTION_DDOT": 0.0,
    "TLE_LINE1": "1 53076U 22077AK  25315.22216014 -.00000714  00000+0 -51056-4 0  9997",
    "TLE_LINE2": "2 53076  97.6020 134.2329 0001654  91.2532 268.8882 15.01257411183145",
    "COMMENT": "Grouped by shell and plane from TLE"
  },
  {
    "OBJECT_NAME": "STARLINK-4322",
    "OBJECT_ID": "22077AM",
    "EPOCH": "2025-11-11T05:16:53.516640",
    "MEAN_MOTION": 15.01259811,
    "ECCENTRICITY": 9.86e-05,
    "INCLINATION": 97.6018,
    "RA_OF_ASC_NODE": 134.2266,
    "ARG_OF_PERICENTER": 96.3343,
    "MEAN_ANOMALY": 263.7994,
    "EPHEMERIS_TYPE": 0,
    "CLASSIFICATION_TYPE": "U",
    "NORAD_CAT_ID": 53078,
    "ELEMENT_SET_NO": 999,
    "REV_AT_EPOCH": 18314,
    "BSTAR": 0.0,
    "MEAN_MOTION_DOT": -7.38e-06,
    "MEAN_MOTION_DDOT": 0.0,
    "TLE_LINE1": "1 53078U 22077AM  25315.22006385 -.00000738  00000+0 -52910-4 0  9993",
    "TLE_LINE2": "2 53078  97.6018 134.2266 0000986  96.3343 263.7994 15.01259811183141",
    "COMMENT": "Grouped by shell and plane from TLE"
  },
  {
    "OBJECT_NAME": "STARLINK-4327",
    "OBJECT_ID": "22077AN",
    "EPOCH": "2025-11-11T05:56:32.411040",
    "MEAN_MOTION": 15.05649857,
    "ECCENTRICITY": 0.0001828,
    "INCLINATION": 97.6026,
    "RA_OF_ASC_NODE": 134.4871,
    "ARG_OF_PERICENTER": 83.2148,
    "MEAN_ANOMALY": 276.9287,
    "EPHEMERIS_TYPE": 0,
    "CLASSIFICATION_TYPE": "U",
    "NORAD_CAT_ID": 53079,
    "ELEMENT_SET_NO": 999,
    "REV_AT_EPOCH": 18316,
    "BSTAR": 8.8555e-05,
    "MEAN_MOTION_DOT": 1.217e-05,
    "MEAN_MOTION_DDOT": 0.0,
    "TLE_LINE1": "1 53079U 22077AN  25315.24759735  .00001217  00000+0  88555-4 0  9995",
    "TLE_LINE2": "2 53079  97.6026 134.4871 0001828  83.2148 276.9287 15.05649857183169",
    "COMMENT": "Grouped by shell and plane from TLE"
  },
  {
    "OBJECT_NAME": "STARLINK-4330",
    "OBJECT_ID": "22077AP",
    "EPOCH": "2025-11-11T06:20:27.531456",
    "MEAN_MOTION": 15.05658065,
    "ECCENTRICITY": 0.0001258,
    "INCLINATION": 97.6018,
    "RA_OF_ASC_NODE": 134.4726,
    "ARG_OF_PERICENTER": 81.646,
    "MEAN_ANOMALY": 278.491,
    "EPHEMERIS_TYPE": 0,
    "CLASSIFICATION_TYPE": "U",
    "NORAD_CAT_ID": 53080,
    "ELEMENT_SET_NO": 999,
    "REV_AT_EPOCH": 18316,
    "BSTAR": 0.0,
    "MEAN_MOTION_DOT": -9.04e-06,
    "MEAN_MOTION_DDOT": 0.0,
    "TLE_LINE1": "1 53080U 22077AP  25315.26420754 -.00000904  00000+0 -58432-4 0  9990",
    "TLE_LINE2": "2 53080  97.6018 134.4726 0001258  81.6460 278.4910 15.05658065183168",
    "COMMENT": "Grouped by shell and plane from TLE"
  },
  {
    "OBJECT_NAME": "STARLINK-4326",
    "OBJECT_ID": "22077AQ",
    "EPOCH": "2025-11-11T05:14:34.999296",
    "MEAN_MOTION": 15.01265036,
    "ECCENTRICITY": 0.0001398,
    "INCLINATION": 97.6018,
    "RA_OF_ASC_NODE": 134.2079,
    "ARG_OF_PERICENTER": 85.6266,
    "MEAN_ANOMALY": 274.5118,
    "EPHEMERIS_TYPE": 0,
    "CLASSIFICATION_TYPE": "U",
    "NORAD_CAT_ID": 53081,
    "ELEMENT_SET_NO": 999,
    "REV_AT_EPOCH": 18314,
    "BSTAR": 5.0401e-05,
    "MEAN_MOTION_DOT": 5.89e-06,
    "MEAN_MOTION_DDOT": 0.0,
    "TLE_LINE1": "1 53081U 22077AQ  25315.21846064  .00000589  00000+0  50401-4 0  9997",
    "TLE_LINE2": "2 53081  97.6018 134.2079 0001398  85.6266 274.5118 15.01265036183144",
    "COMMENT": "Grouped by shell and plane from TLE"
  },
  {
    "OBJECT_NAME": "STARLINK-4321",
    "OBJECT_ID": "22077AR",
    "EPOCH": "2025-11-11T05:06:13.272768",
    "MEAN_MOTION": 15.01260071,
    "ECCENTRICITY": 0.0001065,
    "INCLINATION": 97.6013,
    "RA_OF_ASC_NODE": 134.2179,
    "ARG_OF_PERICENTER": 243.1564,
    "MEAN_ANOMALY": 116.9551,
    "EPHEMERIS_TYPE": 0,
    "CLASSIFICATION_TYPE": "U",
    "NORAD_CAT_ID": 53082,
    "ELEMENT_SET_NO": 999,
    "REV_AT_EPOCH": 18314,
    "BSTAR": 0.0,
    "MEAN_MOTION_DOT": -4.09e-06,
    "MEAN_MOTION_DDOT": 0.0,
    "TLE_LINE1": "1 53082U 22077AR  25315.21265362 -.00000409  00000+0 -27312-4 0  9992",
    "TLE_LINE2": "2 53082  97.6013 134.2179 0001065 243.1564 116.9551 15.01260071183148",
    "COMMENT": "Grouped by shell and plane from TLE"
  },
  {
    "OBJECT_NAME": "STARLINK-4251",
    "OBJECT_ID": "22077AS",
    "EPOCH": "2025-11-11T06:12:29.302272",
    "MEAN_MOTION": 15.05647182,
    "ECCENTRICITY": 9.76e-05,
    "INCLINATION": 97.6027,
    "RA_OF_ASC_NODE": 134.4347,
    "ARG_OF_PERICENTER": 81.5681,
    "MEAN_ANOMALY": 278.5656,
    "EPHEMERIS_TYPE": 0,
    "CLASSIFICATION_TYPE": "U",
    "NORAD_CAT_ID": 53083,
    "ELEMENT_SET_NO": 999,
    "REV_AT_EPOCH": 18316,
    "BSTAR": 8.963100000000001e-05,
    "MEAN_MOTION_DOT": 1.233e-05,
    "MEAN_MOTION_DDOT": 0.0,
    "TLE_LINE1": "1 53083U 22077AS  25315.25867248  .00001233  00000+0  89631-4 0  9994",
    "TLE_LINE2": "2 53083  97.6027 134.4347 0000976  81.5681 278.5656 15.05647182183166",
    "COMMENT": "Grouped by shell and plane from TLE"
  },
  {
    "OBJECT_NAME": "STARLINK-4319",
    "OBJECT_ID": "22077AT",
    "EPOCH": "2025-11-11T06:08:30.094368",
    "MEAN_MOTION": 15.05648218,
    "ECCENTRICITY": 0.0001627,
    "INCLINATION": 97.6028,
    "RA_OF_ASC_NODE": 134.4648,
    "ARG_OF_PERICENTER": 86.8672,
    "MEAN_ANOMALY": 273.2741,
    "EPHEMERIS_TYPE": 0,
    "CLASSIFICATION_TYPE": "U",
    "NORAD_CAT_ID": 53084,
    "ELEMENT_SET_NO": 999,
    "REV_AT_EPOCH": 18316,
    "BSTAR": 4.712e-05,
    "MEAN_MOTION_DOT": 6.19e-06,
    "MEAN_MOTION_DDOT": 0.0,
    "TLE_LINE1": "1 53084U 22077AT  25315.25590387  .00000619  00000+0  47120-4 0  9996",
    "TLE_LINE2": "2 53084  97.6028 134.4648 0001627  86.8672 273.2741 15.05648218183162",
    "COMMENT": "Grouped by shell and plane from TLE"
  },
  {
    "OBJECT_NAME": "STARLINK-4324",
    "OBJECT_ID": "22077AU",
    "EPOCH": "2025-11-11T01:41:19.810752",
    "MEAN_MOTION": 15.05650085,
    "ECCENTRICITY": 0.0001353,
    "INCLINATION": 97.6021,
    "RA_OF_ASC_NODE": 134.2427,
    "ARG_OF_PERICENTER": 74.4975,
    "MEAN_ANOMALY": 285.6401,
    "EPHEMERIS_TYPE": 0,
    "CLASSIFICATION_TYPE": "U",
    "NORAD_CAT_ID": 53085,
    "ELEMENT_SET_NO": 999,
    "REV_AT_EPOCH": 18313,
    "BSTAR": 4.9901e-05,
    "MEAN_MOTION_DOT": 6.59e-06,
    "MEAN_MOTION_DDOT": 0.0,
    "TLE_LINE1": "1 53085U 22077AU  25315.07036818  .00000659  00000+0  49901-4 0  9994",
    "TLE_LINE2": "2 53085  97.6021 134.2427 0001353  74.4975 285.6401 15.05650085183136",
    "COMMENT": "Grouped by shell and plane from TLE"
  },
  {
    "OBJECT_NAME": "STARLINK-4318",
    "OBJECT_ID": "22077AV",
    "EPOCH": "2025-11-11T01:48:55.691712",
    "MEAN_MOTION": 15.01261557,
    "ECCENTRICITY": 0.0002103,
    "INCLINATION": 97.6012,
    "RA_OF_ASC_NODE": 134.0833,
    "ARG_OF_PERICENTER": 203.8152,
    "MEAN_ANOMALY": 156.2976,
    "EPHEMERIS_TYPE": 0,
    "CLASSIFICATION_TYPE": "U",
    "NORAD_CAT_ID": 53086,
    "ELEMENT_SET_NO": 999,
    "REV_AT_EPOCH": 18312,
    "BSTAR": 0.0,
    "MEAN_MOTION_DOT": -3.06e-06,
    "MEAN_MOTION_DDOT": 0.0,
    "TLE_LINE1": "1 53086U 22077AV  25315.07564458 -.00000306  00000+0 -19290-4 0  9990",
    "TLE_LINE2": "2 53086  97.6012 134.0833 0002103 203.8152 156.2976 15.01261557183122",
    "COMMENT": "Grouped by shell and plane from TLE"
  },
  {
    "OBJECT_NAME": "STARLINK-4333",
    "OBJECT_ID": "22077AX",
    "EPOCH": "2025-11-11T01:43:35.988384",
    "MEAN_MOTION": 15.01262613,
    "ECCENTRICITY": 0.0001395,
    "INCLINATION": 97.6015,
    "RA_OF_ASC_NODE": 134.0786,
    "ARG_OF_PERICENTER": 181.3052,
    "MEAN_ANOMALY": 178.8169,
    "EPHEMERIS_TYPE": 0,
    "CLASSIFICATION_TYPE": "U",
    "NORAD_CAT_ID": 53088,
    "ELEMENT_SET_NO": 999,
    "REV_AT_EPOCH": 18312,
    "BSTAR": 2.1729e-05,
    "MEAN_MOTION_DOT": 2.21e-06,
    "MEAN_MOTION_DDOT": 0.0,
    "TLE_LINE1": "1 53088U 22077AX  25315.07194431  .00000221  00000+0  21729-4 0  9996",
    "TLE_LINE2": "2 53088  97.6015 134.0786 0001395 181.3052 178.8169 15.01262613183123",
    "COMMENT": "Grouped by shell and plane from TLE"
  },
  {
    "OBJECT_NAME": "STARLINK-5028",
    "OBJECT_ID": "22119A",
    "EPOCH": "2025-11-11T04:50:15.203040",
    "MEAN_MOTION": 15.08840916,
    "ECCENTRICITY": 0.0001476,
    "INCLINATION": 53.2157,
    "RA_OF_ASC_NODE": 136.2659,
    "ARG_OF_PERICENTER": 86.3592,
    "MEAN_ANOMALY": 273.7569,
    "EPHEMERIS_TYPE": 0,
    "CLASSIFICATION_TYPE": "U",
    "NORAD_CAT_ID": 53886,
    "ELEMENT_SET_NO": 999,
    "REV_AT_EPOCH": 17379,
    "BSTAR": 3.8585000000000004e-05,
    "MEAN_MOTION_DOT": 3.26e-06,
    "MEAN_MOTION_DDOT": 0.0,
    "TLE_LINE1": "1 53886U 22119A   25315.20156485  .00000326  00000+0  38585-4 0  9995",
    "TLE_LINE2": "2 53886  53.2157 136.2659 0001476  86.3592 273.7569 15.08840916173796",
    "COMMENT": "Grouped by shell and plane from TLE"
  },
  {
    "OBJECT_NAME": "STARLINK-5029",
    "OBJECT_ID": "22119B",
    "EPOCH": "2025-11-10T22:12:47.788704",
    "MEAN_MOTION": 15.08839749,
    "ECCENTRICITY": 0.0001824,
    "INCLINATION": 53.2164,
    "RA_OF_ASC_NODE": 137.3857,
    "ARG_OF_PERICENTER": 94.8674,
    "MEAN_ANOMALY": 265.2527,
    "EPHEMERIS_TYPE": 0,
    "CLASSIFICATION_TYPE": "U",
    "NORAD_CAT_ID": 53887,
    "ELEMENT_SET_NO": 999,
    "REV_AT_EPOCH": 17375,
    "BSTAR": 0.0,
    "MEAN_MOTION_DOT": -7.02e-06,
    "MEAN_MOTION_DDOT": 0.0,
    "TLE_LINE1": "1 53887U 22119B   25314.92555311 -.00000702  00000+0 -26025-4 0  9991",
    "TLE_LINE2": "2 53887  53.2164 137.3857 0001824  94.8674 265.2527 15.08839749173757",
    "COMMENT": "Grouped by shell and plane from TLE"
  }
]